H1 CPF 01  gfz 2021 10 03 12  7762 terrasarx 
H2 0702601  6201 31698    2021 10 03 00 59 42 2021 10 08 00 00 42   120 1 1  0 0 0
H9
10 0 59492  29502.000000  0    1446229.166    120102.474   6723260.641
10 0 59492  29622.000000  0    2176186.763   -399790.328   6512992.567
10 0 59492  29742.000000  0    2859024.565   -925070.266   6188260.544
10 0 59492  29862.000000  0    3482805.292  -1445636.623   5754739.031
10 0 59492  29982.000000  0    4036790.318  -1951265.551   5220013.040
10 0 59492  30102.000000  0    4511628.702  -2431810.781   4593450.713
10 0 59492  30222.000000  0    4899521.334  -2877408.062   3886045.654
10 0 59492  30342.000000  0    5194357.238  -3278679.824   3110227.802
10 0 59492  30462.000000  0    5391816.914  -3626933.772   2279644.528
10 0 59492  30582.000000  0    5489439.108  -3914351.305   1408918.074
10 0 59492  30702.000000  0    5486651.191  -4134162.085    513383.342
10 0 59492  30822.000000  0    5384761.419  -4280798.352   -391189.410
10 0 59492  30942.000000  0    5186913.243  -4350026.754  -1288881.096
10 0 59492  31062.000000  0    4898002.066  -4339052.407  -2163912.993
10 0 59492  31182.000000  0    4524556.959  -4246593.458  -3000931.571
10 0 59492  31302.000000  0    4074591.219  -4072924.810  -3785282.578
10 0 59492  31422.000000  0    3557425.582  -3819889.649  -4503269.044
10 0 59492  31542.000000  0    2983489.443  -3490879.879  -5142387.829
10 0 59492  31662.000000  0    2364105.054  -3090786.174  -5691540.744
10 0 59492  31782.000000  0    1711261.208  -2625920.380  -6141216.761
10 0 59492  31902.000000  0    1037380.821  -2103912.639  -6483647.004
10 0 59492  32022.000000  0     355084.776  -1533582.431  -6712929.257
10 0 59492  32142.000000  0    -323041.678   -924788.008  -6825118.830
10 0 59492  32262.000000  0    -984675.758   -288257.661  -6818287.983
10 0 59492  32382.000000  0   -1617975.592    364595.227  -6692555.175
10 0 59492  32502.000000  0   -2211787.394   1021871.600  -6450082.605
10 0 59492  32622.000000  0   -2755837.352   1671398.078  -6095043.099
10 0 59492  32742.000000  0   -3240906.890   2300946.974  -5633556.414
10 0 59492  32862.000000  0   -3658989.851   2898463.297  -5073595.444
10 0 59492  32982.000000  0   -4003429.079   3452294.985  -4424860.033
10 0 59492  33102.000000  0   -4269027.894   3951421.225  -3698618.593
10 0 59492  33222.000000  0   -4452133.218   4385674.599  -2907521.276
10 0 59492  33342.000000  0   -4550690.827   4745952.770  -2065386.237
10 0 59492  33462.000000  0   -4564269.696   5024413.518  -1186961.070
10 0 59492  33582.000000  0   -4494055.173   5214649.879   -287663.545
10 0 59492  33702.000000  0   -4342807.820   5311838.703    616695.292
10 0 59492  33822.000000  0   -4114790.601   5312858.431   1510195.887
10 0 59492  33942.000000  0   -3815665.503   5216373.408   2377101.190
10 0 59492  34062.000000  0   -3452360.444   5022880.068   3202143.310
10 0 59492  34182.000000  0   -3032911.255   4734716.382   3970798.989
10 0 59492  34302.000000  0   -2566284.503   4356034.906   4669549.552
10 0 59492  34422.000000  0   -2062184.154   3892739.125   5286120.827
10 0 59492  34542.000000  0   -1530847.534   3352384.889   5809697.922
10 0 59492  34662.000000  0    -982834.895   2744050.004   6231110.979
10 0 59492  34782.000000  0    -428818.295   2078174.945   6542989.252
10 0 59492  34902.000000  0     120625.489   1366380.029   6739883.443
10 0 59492  35022.000000  0     655216.571    621259.913   6818355.963
10 0 59492  35142.000000  0    1165163.449   -143839.582   6777036.176
10 0 59492  35262.000000  0    1641341.227   -915059.430   6616643.644
10 0 59492  35382.000000  0    2075454.583  -1678278.042   6339976.660
10 0 59492  35502.000000  0    2460182.765  -2419369.081   5951867.283
10 0 59492  35622.000000  0    2789305.102  -3124464.148   5459102.414
10 0 59492  35742.000000  0    3057803.768  -3780214.713   4870310.566
10 0 59492  35862.000000  0    3261942.342  -4374048.692   4195816.729
10 0 59492  35982.000000  0    3399319.474  -4894417.886   3447465.586
10 0 59492  36102.000000  0    3468894.763  -5331029.079   2638414.926
10 0 59492  36222.000000  0    3470986.984  -5675054.598   1782903.247
10 0 59492  36342.000000  0    3407243.608  -5919316.542    895995.147
10 0 59492  36462.000000  0    3280582.961  -6058438.675     -6690.021
10 0 59492  36582.000000  0    3095111.356  -6088965.351   -909260.205
10 0 59492  36702.000000  0    2856014.385  -6009441.214  -1795841.124
10 0 59492  36822.000000  0    2569426.360  -5820449.260  -2650862.801
10 0 59492  36942.000000  0    2242282.839  -5524609.166  -3459339.642
10 0 59492  37062.000000  0    1882157.875  -5126534.006  -4207137.425
10 0 59492  37182.000000  0    1497091.519  -4632746.605  -4881218.794
10 0 59492  37302.000000  0    1095413.834  -4051561.454  -5469864.807
10 0 59492  37422.000000  0     685568.146  -3392934.877  -5962870.741
10 0 59492  37542.000000  0     275936.793  -2668286.445  -6351712.522
10 0 59492  37662.000000  0    -125326.639  -1890296.246  -6629682.601
10 0 59492  37782.000000  0    -510455.300  -1072681.708  -6791994.937
10 0 59492  37902.000000  0    -872214.572   -229957.583  -6835859.061
10 0 59492  38022.000000  0   -1204033.973    622817.310  -6760522.014
10 0 59492  38142.000000  0   -1500123.681   1470302.086  -6567279.260
10 0 59492  38262.000000  0   -1755573.133   2297142.909  -6259454.576
10 0 59492  38382.000000  0   -1966431.452   3088244.625  -5842350.275
10 0 59492  38502.000000  0   -2129768.886   3829043.640  -5323165.640
10 0 59492  38622.000000  0   -2243717.348   4505775.860  -4710884.190
10 0 59492  38742.000000  0   -2307490.327   5105736.674  -4016129.259
10 0 59492  38862.000000  0   -2321380.217   5617525.762  -3250988.231
10 0 59492  38982.000000  0   -2286732.769   6031271.578  -2428809.868
10 0 59492  39102.000000  0   -2205899.621   6338832.855  -1563976.277
10 0 59492  39222.000000  0   -2082169.713   6533968.945   -671650.794
10 0 59492  39342.000000  0   -1919680.604   6612475.049    232489.687
10 0 59492  39462.000000  0   -1723311.752   6572281.846   1132536.544
10 0 59492  39582.000000  0   -1498561.101   6413508.982   2012641.393
10 0 59492  39702.000000  0   -1251408.312   6138471.694   2857304.527
10 0 59492  39822.000000  0    -988169.801   5751644.458   3651654.551
10 0 59492  39942.000000  0    -715349.252   5259583.321   4381715.300
10 0 59492  40062.000000  0    -439486.603   4670806.744   5034656.919
10 0 59492  40182.000000  0    -167007.424   3995635.610   5599020.462
10 0 59492  40302.000000  0      95920.140   3246004.671   6064914.833
10 0 59492  40422.000000  0     343519.263   2435242.979   6424186.378
10 0 59492  40542.000000  0     570526.904   1577831.032   6670555.020
10 0 59492  40662.000000  0     772302.396    689138.270   6799718.360
10 0 59492  40782.000000  0     944919.919   -214853.498   6809421.100
10 0 59492  40902.000000  0    1085243.745  -1117836.141   6699492.781
10 0 59492  41022.000000  0    1190985.028  -2003469.240   6471851.239
10 0 59492  41142.000000  0    1260739.274  -2855675.507   6130471.761
10 0 59492  41262.000000  0    1294003.712  -3658934.554   5681321.847
10 0 59492  41382.000000  0    1291173.958  -4398567.952   5132260.953
10 0 59492  41502.000000  0    1253521.792  -5061010.624   4492908.992
10 0 59492  41622.000000  0    1183153.262  -5634067.175   3774484.611
10 0 59492  41742.000000  0    1082947.820  -6107146.870   2989611.178
10 0 59492  41862.000000  0     956479.670  -6471468.554   2152094.666
10 0 59492  41982.000000  0     807922.080  -6720232.894   1276679.147
10 0 59492  42102.000000  0     641938.195  -6848757.653    378782.800
10 0 59492  42222.000000  0     463560.294  -6854572.720   -525782.048
10 0 59492  42342.000000  0     278059.701  -6737467.527  -1421098.405
10 0 59492  42462.000000  0      90813.160  -6499491.625  -2291433.253
10 0 59492  42582.000000  0     -92831.649  -6144911.375  -3121520.081
10 0 59492  42702.000000  0    -267688.677  -5680123.801  -3896830.979
10 0 59492  42822.000000  0    -428860.839  -5113528.581  -4603832.382
10 0 59492  42942.000000  0    -571858.650  -4455362.797  -5230217.627
10 0 59492  43062.000000  0    -692707.665  -3717504.685  -5765114.203
10 0 59492  43182.000000  0    -788042.228  -2913250.083  -6199263.077
10 0 59492  43302.000000  0    -855183.983  -2057066.896  -6525168.037
10 0 59492  43422.000000  0    -892204.004  -1164332.704  -6737213.502
10 0 59492  43542.000000  0    -897967.875   -251060.746  -6831751.581
10 0 59492  43662.000000  0    -872162.450    666382.943  -6807157.699
10 0 59492  43782.000000  0    -815304.199   1571565.346  -6663854.536
10 0 59492  43902.000000  0    -728729.606   2448273.190  -6404305.547
10 0 59492  44022.000000  0    -614567.325   3280796.549  -6032978.152
10 0 59492  44142.000000  0    -475692.109   4054207.558  -5556275.960
10 0 59492  44262.000000  0    -315661.117   4754627.754  -4982438.510
10 0 59492  44382.000000  0    -138634.199   5369480.950  -4321410.703
10 0 59492  44502.000000  0      50720.901   5887727.057  -3584680.701
10 0 59492  44622.000000  0     247337.039   6300070.506  -2785088.283
10 0 59492  44742.000000  0     445867.535   6599139.165  -1936606.660
10 0 59492  44862.000000  0     640814.930   6779629.326  -1054099.881
10 0 59492  44982.000000  0     826665.734   6838411.503   -153059.958
10 0 59492  45102.000000  0     998027.797   6774593.770    750670.931
10 0 59492  45222.000000  0    1149766.575   6589539.472   1641187.020
10 0 59492  45342.000000  0    1277135.557   6286839.966   2502807.046
10 0 59492  45462.000000  0    1375898.546   5872243.598   3320358.082
10 0 59492  45582.000000  0    1442441.248   5353541.988   4079450.374
10 0 59492  45702.000000  0    1473869.644   4740415.430   4766735.313
10 0 59492  45822.000000  0    1468090.982   4044241.502   5370144.482
10 0 59492  45942.000000  0    1423875.390   3277871.903   5879097.302
99
